{"type": "FeatureCollection", "features": [ {"type": "Feature", "properties": {"norad_id": 46449, "name": "FENGYUN 1C DEB", "group": "fengyun-1c-debris", "lat": 64.92448237922918, "lon": -149.81742158029692, "alt_km": 967.4720890869858, "timestamp": "2025-12-02T13:52:17.552482+00:00", "meta": {"OBJECT_NAME": "FENGYUN 1C DEB", "OBJECT_ID": "1999-025EZE", "EPOCH": "2025-11-27T19:57:02.428704", "MEAN_MOTION": 14.19021773, "ECCENTRICITY": 0.02029501, "INCLINATION": 98.6463, "RA_OF_ASC_NODE": 6.5721, "ARG_OF_PERICENTER": 314.0231, "MEAN_ANOMALY": 44.4375, "EPHEMERIS_TYPE": 0, "CLASSIFICATION_TYPE": "U", "NORAD_CAT_ID": 46449, "ELEMENT_SET_NO": 999, "REV_AT_EPOCH": 57425, "BSTAR": 0.00050383916, "MEAN_MOTION_DOT": 1.244e-05, "MEAN_MOTION_DDOT": 0}, "tle": {"line1": "1 46449U 99025EZE 25331.83127811  .00001244  00000+0  50384-3 0  9990", "line2": "2 46449  98.6463   6.5721 0202950 314.0231  44.4375 14.19021773574253"}}, "geometry": {"type": "Point", "coordinates": [-149.81742158029692, 64.92448237922918]}}, {"type": "Feature", "properties": {"norad_id": 46450, "name": "FENGYUN 1C DEB", "group": "fengyun-1c-debris", "lat": 56.574396520271534, "lon": 26.780214226850013, "alt_km": 764.3166594767235, "timestamp": "2025-12-02T13:52:17.552493+00:00", "meta": {"OBJECT_NAME": "FENGYUN 1C DEB", "OBJECT_ID": "1999-025EZF", "EPOCH": "2025-12-01T01:22:23.335392", "MEAN_MOTION": 14.03437958, "ECCENTRICITY": 0.01820591, "INCLINATION": 98.0807, "RA_OF_ASC_NODE": 192.9977, "ARG_OF_PERICENTER": 94.2765, "MEAN_ANOMALY": 267.9231, "EPHEMERIS_TYPE": 0, "CLASSIFICATION_TYPE": "U", "NORAD_CAT_ID": 46450, "ELEMENT_SET_NO": 999, "REV_AT_EPOCH": 60955, "BSTAR": 0.0021892778, "MEAN_MOTION_DOT": 3.934e-05, "MEAN_MOTION_DDOT": 0}, "tle": {"line1": "1 46450U 99025EZF 25335.05721453  .00003934  00000+0  21893-2 0  9992", "line2": "2 46450  98.0807 192.9977 0182059  94.2765 267.9231 14.03437958609554"}}, "geometry": {"type": "Point", "coordinates": [26.780214226850013, 56.574396520271534]}}, {"type": "Feature", "properties": {"norad_id": 46451, "name": "FENGYUN 1C DEB", "group": "fengyun-1c-debris", "lat": -17.726554542745, "lon": 173.94444513232628, "alt_km": 711.8963981263905, "timestamp": "2025-12-02T13:52:17.552503+00:00", "meta": {"OBJECT_NAME": "FENGYUN 1C DEB", "OBJECT_ID": "1999-025EZG", "EPOCH": "2025-11-30T12:38:05.847648", "MEAN_MOTION": 14.2014228, "ECCENTRICITY": 0.01714523, "INCLINATION": 98.1553, "RA_OF_ASC_NODE": 354.6789, "ARG_OF_PERICENTER": 221.5557, "MEAN_ANOMALY": 294.2821, "EPHEMERIS_TYPE": 0, "CLASSIFICATION_TYPE": "U", "NORAD_CAT_ID": 46451, "ELEMENT_SET_NO": 999, "REV_AT_EPOCH": 56833, "BSTAR": 0.0030839765, "MEAN_MOTION_DOT": 7.589e-05, "MEAN_MOTION_DDOT": 0}, "tle": {"line1": "1 46451U 99025EZG 25334.52645657  .00007589  00000+0  30840-2 0  9997", "line2": "2 46451  98.1553 354.6789 0171452 221.5557 294.2821 14.20142280568339"}}, "geometry": {"type": "Point", "coordinates": [173.94444513232628, -17.726554542745]}}, {"type": "Feature", "properties": {"norad_id": 46468, "name": "FENGYUN 1C DEB", "group": "fengyun-1c-debris", "lat": -78.45194090228829, "lon": 114.20068981940686, "alt_km": 786.4604201581724, "timestamp": "2025-12-02T13:52:17.552513+00:00", "meta": {"OBJECT_NAME": "FENGYUN 1C DEB", "OBJECT_ID": "1999-025EZK", "EPOCH": "2025-12-01T04:40:55.312032", "MEAN_MOTION": 14.24559314, "ECCENTRICITY": 0.0045013, "INCLINATION": 98.8851, "RA_OF_ASC_NODE": 62.8429, "ARG_OF_PERICENTER": 263.3595, "MEAN_ANOMALY": 125.7924, "EPHEMERIS_TYPE": 0, "CLASSIFICATION_TYPE": "U", "NORAD_CAT_ID": 46468, "ELEMENT_SET_NO": 999, "REV_AT_EPOCH": 73652, "BSTAR": 0.0020801, "MEAN_MOTION_DOT": 4.835e-05, "MEAN_MOTION_DDOT": 0}, "tle": {"line1": "1 46468U 99025EZK 25335.19508463  .00004835  00000+0  20801-2 0  9999", "line2": "2 46468  98.8851  62.8429 0045013 263.3595 125.7924 14.24559314736527"}}, "geometry": {"type": "Point", "coordinates": [114.20068981940686, -78.45194090228829]}}, {"type": "Feature", "properties": {"norad_id": 46986, "name": "FENGYUN 1C DEB", "group": "fengyun-1c-debris", "lat": -4.87138410814639, "lon": 1.2976468761030016, "alt_km": 765.6016299563953, "timestamp": "2025-12-02T13:52:17.552523+00:00", "meta": {"OBJECT_NAME": "FENGYUN 1C DEB", "OBJECT_ID": "1999-025EZL", "EPOCH": "2025-12-01T08:01:27.390720", "MEAN_MOTION": 14.47112781, "ECCENTRICITY": 0.01038428, "INCLINATION": 98.2357, "RA_OF_ASC_NODE": 359.3803, "ARG_OF_PERICENTER": 247.048, "MEAN_ANOMALY": 111.973, "EPHEMERIS_TYPE": 0, "CLASSIFICATION_TYPE": "U", "NORAD_CAT_ID": 46986, "ELEMENT_SET_NO": 999, "REV_AT_EPOCH": 63235, "BSTAR": 0.00048896767, "MEAN_MOTION_DOT": 1.859e-05, "MEAN_MOTION_DDOT": 0}, "tle": {"line1": "1 46986U 99025EZL 25335.33434480  .00001859  00000+0  48897-3 0  9996", "line2": "2 46986  98.2357 359.3803 0103842 247.0480 111.9730 14.47112781632350"}}, "geometry": {"type": "Point", "coordinates": [1.2976468761030016, -4.87138410814639]}}, {"type": "Feature", "properties": {"norad_id": 46989, "name": "FENGYUN 1C DEB", "group": "fengyun-1c-debris", "lat": 43.48977235408579, "lon": 129.15622828002014, "alt_km": 827.8083255245492, "timestamp": "2025-12-02T13:52:17.552533+00:00", "meta": {"OBJECT_NAME": "FENGYUN 1C DEB", "OBJECT_ID": "1999-025EZP", "EPOCH": "2025-12-01T09:56:49.877952", "MEAN_MOTION": 13.7915922, "ECCENTRICITY": 0.02374727, "INCLINATION": 99.5096, "RA_OF_ASC_NODE": 137.1371, "ARG_OF_PERICENTER": 7.3744, "MEAN_ANOMALY": 21.4435, "EPHEMERIS_TYPE": 0, "CLASSIFICATION_TYPE": "U", "NORAD_CAT_ID": 46989, "ELEMENT_SET_NO": 999, "REV_AT_EPOCH": 70886, "BSTAR": 0.0040160764, "MEAN_MOTION_DOT": 5.034e-05, "MEAN_MOTION_DDOT": 0}, "tle": {"line1": "1 46989U 99025EZP 25335.41446618  .00005034  00000+0  40161-2 0  9998", "line2": "2 46989  99.5096 137.1371 0237472   7.3744  21.4435 13.79159220708866"}}, "geometry": {"type": "Point", "coordinates": [129.15622828002014, 43.48977235408579]}}, {"type": "Feature", "properties": {"norad_id": 46990, "name": "FENGYUN 1C DEB", "group": "fengyun-1c-debris", "lat": -17.161653518605924, "lon": -176.11838465159843, "alt_km": 887.7207212557951, "timestamp": "2025-12-02T13:52:17.552544+00:00", "meta": {"OBJECT_NAME": "FENGYUN 1C DEB", "OBJECT_ID": "1999-025EZQ", "EPOCH": "2025-11-26T08:35:57.996096", "MEAN_MOTION": 14.23382053, "ECCENTRICITY": 0.0358932, "INCLINATION": 98.231, "RA_OF_ASC_NODE": 175.4855, "ARG_OF_PERICENTER": 108.636, "MEAN_ANOMALY": 64.2057, "EPHEMERIS_TYPE": 0, "CLASSIFICATION_TYPE": "U", "NORAD_CAT_ID": 46990, "ELEMENT_SET_NO": 999, "REV_AT_EPOCH": 8296, "BSTAR": 0.0024312042, "MEAN_MOTION_DOT": 0.0001074, "MEAN_MOTION_DDOT": 0}, "tle": {"line1": "1 46990U 99025EZQ 25330.35831014  .00010740  00000+0  24312-2 0  9996", "line2": "2 46990  98.2310 175.4855 0358932 108.6360  64.2057 14.23382053 82962"}}, "geometry": {"type": "Point", "coordinates": [-176.11838465159843, -17.161653518605924]}}, {"type": "Feature", "properties": {"norad_id": 46992, "name": "FENGYUN 1C DEB", "group": "fengyun-1c-debris", "lat": 8.635063819748556, "lon": 144.96572273432506, "alt_km": 843.371675061232, "timestamp": "2025-12-02T13:52:17.552554+00:00", "meta": {"OBJECT_NAME": "FENGYUN 1C DEB", "OBJECT_ID": "1999-025EZS", "EPOCH": "2025-11-30T16:28:49.931328", "MEAN_MOTION": 14.00675889, "ECCENTRICITY": 0.00717654, "INCLINATION": 98.8954, "RA_OF_ASC_NODE": 321.762, "ARG_OF_PERICENTER": 194.0114, "MEAN_ANOMALY": 165.9062, "EPHEMERIS_TYPE": 0, "CLASSIFICATION_TYPE": "U", "NORAD_CAT_ID": 46992, "ELEMENT_SET_NO": 999, "REV_AT_EPOCH": 60788, "BSTAR": 0.00049604417, "MEAN_MOTION_DOT": 7.12e-06, "MEAN_MOTION_DDOT": 0}, "tle": {"line1": "1 46992U 99025EZS 25334.68668902  .00000712  00000+0  49604-3 0  9992", "line2": "2 46992  98.8954 321.7620 0071765 194.0114 165.9062 14.00675889607888"}}, "geometry": {"type": "Point", "coordinates": [144.96572273432506, 8.635063819748556]}}, {"type": "Feature", "properties": {"norad_id": 46993, "name": "FENGYUN 1C DEB", "group": "fengyun-1c-debris", "lat": 81.25515755731833, "lon": 2.4139843040149507, "alt_km": 1100.2860942397874, "timestamp": "2025-12-02T13:52:17.552564+00:00", "meta": {"OBJECT_NAME": "FENGYUN 1C DEB", "OBJECT_ID": "1999-025EZT", "EPOCH": "2025-11-27T14:29:20.258016", "MEAN_MOTION": 13.69128576, "ECCENTRICITY": 0.02626499, "INCLINATION": 98.723, "RA_OF_ASC_NODE": 91.4662, "ARG_OF_PERICENTER": 339.6374, "MEAN_ANOMALY": 83.9969, "EPHEMERIS_TYPE": 0, "CLASSIFICATION_TYPE": "U", "NORAD_CAT_ID": 46993, "ELEMENT_SET_NO": 999, "REV_AT_EPOCH": 60050, "BSTAR": 0.00042527912, "MEAN_MOTION_DOT": 4.29e-06, "MEAN_MOTION_DDOT": 0}, "tle": {"line1": "1 46993U 99025EZT 25331.60370669  .00000429  00000+0  42528-3 0  9995", "line2": "2 46993  98.7230  91.4662 0262649 339.6374  83.9969 13.69128576600507"}}, "geometry": {"type": "Point", "coordinates": [2.4139843040149507, 81.25515755731833]}}, {"type": "Feature", "properties": {"norad_id": 46995, "name": "FENGYUN 1C DEB", "group": "fengyun-1c-debris", "lat": 5.98333477933762, "lon": -119.68409160677554, "alt_km": 819.2989121319306, "timestamp": "2025-12-02T13:52:17.552574+00:00", "meta": {"OBJECT_NAME": "FENGYUN 1C DEB", "OBJECT_ID": "1999-025EZV", "EPOCH": "2025-12-02T04:23:06.408384", "MEAN_MOTION": 13.86224088, "ECCENTRICITY": 0.01921313, "INCLINATION": 98.5974, "RA_OF_ASC_NODE": 59.0441, "ARG_OF_PERICENTER": 146.7857, "MEAN_ANOMALY": 214.5535, "EPHEMERIS_TYPE": 0, "CLASSIFICATION_TYPE": "U", "NORAD_CAT_ID": 46995, "ELEMENT_SET_NO": 999, "REV_AT_EPOCH": 60322, "BSTAR": 0.0031893895, "MEAN_MOTION_DOT": 4.221e-05, "MEAN_MOTION_DDOT": 0}, "tle": {"line1": "1 46995U 99025EZV 25336.18271306  .00004221  00000+0  31894-2 0  9990", "line2": "2 46995  98.5974  59.0441 0192131 146.7857 214.5535 13.86224088603225"}}, "geometry": {"type": "Point", "coordinates": [-119.68409160677554, 5.98333477933762]}}]}